CONNECTA IOT-8          
1 62695U 25009CQ  26068.71856194  .00004428  00000+0  43246-3 0  9996
2 62695  97.7124 148.5526 0002292   4.6494 355.4746 14.92891250 62455
2025-274J               
1 66658U 25274J   26068.73116921  .00005506  00000+0  52680-3 0  9992
2 66658  97.7430 359.5505 0012715 354.9543   5.1546 14.93551146 15381
