[{"OBJECT_NAME":"CONNECTA IOT-8","OBJECT_ID":"2025-009CQ","EPOCH":"2026-03-09T17:14:43.751616","MEAN_MOTION":14.92891251,"ECCENTRICITY":0.00022918,"INCLINATION":97.7124,"RA_OF_ASC_NODE":148.5526,"ARG_OF_PERICENTER":4.6494,"MEAN_ANOMALY":355.4746,"EPHEMERIS_TYPE":0,"CLASSIFICATION_TYPE":"U","NORAD_CAT_ID":62695,"ELEMENT_SET_NO":999,"REV_AT_EPOCH":6245,"BSTAR":0.00043246249,"MEAN_MOTION_DOT":4.428e-5,"MEAN_MOTION_DDOT":0},{"OBJECT_NAME":"OBJECT J","OBJECT_ID":"2025-274J","EPOCH":"2026-03-09T17:32:53.019744","MEAN_MOTION":14.93551146,"ECCENTRICITY":0.00127149,"INCLINATION":97.743,"RA_OF_ASC_NODE":359.5505,"ARG_OF_PERICENTER":354.9543,"MEAN_ANOMALY":5.1546,"EPHEMERIS_TYPE":0,"CLASSIFICATION_TYPE":"U","NORAD_CAT_ID":66658,"ELEMENT_SET_NO":999,"REV_AT_EPOCH":1538,"BSTAR":0.00052680347,"MEAN_MOTION_DOT":5.506e-5,"MEAN_MOTION_DDOT":0}]
